[
    {
        "Altitude(m)": 705784.0084807654,
        "Argument of Periapsis(deg)": 0.011390121186627068,
        "Eccentricity": 0.0,
        "Inclination(deg)": 45.0,
        "Latitude(deg)": 38.17944969547946,
        "Longitude(deg)": -174.31902604327706,
        "Mean Anomaly(deg)": 60.624116647480825,
        "RAAN(deg)": 234.98924805854176,
        "Satellite Name": "Constellation 1 1037",
        "Satellite Number": 1037,
        "Semi-Major Axis(m)": 7083131.272910544,
        "Time(s)": 190
    },
    {
        "Altitude(m)": 705789.5630463483,
        "Argument of Periapsis(deg)": 0.011450069192872472,
        "Eccentricity": 0.0,
        "Inclination(deg)": 45.0,
        "Latitude(deg)": 38.20626487739415,
        "Longitude(deg)": -174.25391450526502,
        "Mean Anomaly(deg)": 60.68481778773071,
        "RAAN(deg)": 234.9891914693762,
        "Satellite Name": "Constellation 1 1037",
        "Satellite Number": 1037,
        "Semi-Major Axis(m)": 7083131.272910544,
        "Time(s)": 191
    },
    {
        "Altitude(m)": 705795.1120572188,
        "Argument of Periapsis(deg)": 0.01151001719911788,
        "Eccentricity": 0.0,
        "Inclination(deg)": 45.0,
        "Latitude(deg)": 38.23303910683336,
        "Longitude(deg)": -174.1887522377773,
        "Mean Anomaly(deg)": 60.7455189279806,
        "RAAN(deg)": 234.98913488021066,
        "Satellite Name": "Constellation 1 1037",
        "Satellite Number": 1037,
        "Semi-Major Axis(m)": 7083131.272910544,
        "Time(s)": 192
    },
    {
        "Altitude(m)": 705800.6554792187,
        "Argument of Periapsis(deg)": 0.011569965205363285,
        "Eccentricity": 0.0,
        "Inclination(deg)": 45.0,
        "Latitude(deg)": 38.25977231521273,
        "Longitude(deg)": -174.1235394004935,
        "Mean Anomaly(deg)": 60.80622006823053,
        "RAAN(deg)": 234.9890782910451,
        "Satellite Name": "Constellation 1 1037",
        "Satellite Number": 1037,
        "Semi-Major Axis(m)": 7083131.272910544,
        "Time(s)": 193
    },
    {
        "Altitude(m)": 705806.1932782318,
        "Argument of Periapsis(deg)": 0.01162991321160869,
        "Eccentricity": 0.0,
        "Inclination(deg)": 45.0,
        "Latitude(deg)": 38.2864644339169,
        "Longitude(deg)": -174.05827564915728,
        "Mean Anomaly(deg)": 60.86692120848041,
        "RAAN(deg)": 234.98902170187955,
        "Satellite Name": "Constellation 1 1037",
        "Satellite Number": 1037,
        "Semi-Major Axis(m)": 7083131.272910544,
        "Time(s)": 194
    },
    {
        "Altitude(m)": 705811.7254201889,
        "Argument of Periapsis(deg)": 0.011689861217854095,
        "Eccentricity": 0.0,
        "Inclination(deg)": 45.0,
        "Latitude(deg)": 38.313115394302,
        "Longitude(deg)": -173.99296114415975,
        "Mean Anomaly(deg)": 60.9276223487303,
        "RAAN(deg)": 234.9889651127139,
        "Satellite Name": "Constellation 1 1037",
        "Satellite Number": 1037,
        "Semi-Major Axis(m)": 7083131.272910544,
        "Time(s)": 195
    },
    {
        "Altitude(m)": 705817.2518710569,
        "Argument of Periapsis(deg)": 0.0117498092240995,
        "Eccentricity": 0.0,
        "Inclination(deg)": 45.0,
        "Latitude(deg)": 38.339725127694585,
        "Longitude(deg)": -173.92759587815274,
        "Mean Anomaly(deg)": 60.988323488980186,
        "RAAN(deg)": 234.98890852354836,
        "Satellite Name": "Constellation 1 1037",
        "Satellite Number": 1037,
        "Semi-Major Axis(m)": 7083131.272910544,
        "Time(s)": 196
    },
    {
        "Altitude(m)": 705822.7725968522,
        "Argument of Periapsis(deg)": 0.011809757230344905,
        "Eccentricity": 0.0,
        "Inclination(deg)": 45.0,
        "Latitude(deg)": 38.36629356539277,
        "Longitude(deg)": -173.86217984414745,
        "Mean Anomaly(deg)": 61.04902462923013,
        "RAAN(deg)": 234.9888519343828,
        "Satellite Name": "Constellation 1 1037",
        "Satellite Number": 1037,
        "Semi-Major Axis(m)": 7083131.272910544,
        "Time(s)": 197
    },
    {
        "Altitude(m)": 705828.2875636369,
        "Argument of Periapsis(deg)": 0.011869705236590313,
        "Eccentricity": 0.0,
        "Inclination(deg)": 45.0,
        "Latitude(deg)": 38.39282063866616,
        "Longitude(deg)": -173.79671303551626,
        "Mean Anomaly(deg)": 61.109725769480015,
        "RAAN(deg)": 234.98879534521726,
        "Satellite Name": "Constellation 1 1037",
        "Satellite Number": 1037,
        "Semi-Major Axis(m)": 7083131.272910544,
        "Time(s)": 198
    },
    {
        "Altitude(m)": 705833.796737505,
        "Argument of Periapsis(deg)": 0.011929653242835719,
        "Eccentricity": 0.0,
        "Inclination(deg)": 45.0,
        "Latitude(deg)": 38.41930627875689,
        "Longitude(deg)": -173.73119544599345,
        "Mean Anomaly(deg)": 61.170426909729905,
        "RAAN(deg)": 234.98873875605165,
        "Satellite Name": "Constellation 1 1037",
        "Satellite Number": 1037,
        "Semi-Major Axis(m)": 7083131.272910544,
        "Time(s)": 199
    }
]